CCSDS_OMM_VERS = 2.0
CREATION_DATE  = 
ORIGINATOR     = 

OBJECT_NAME    = ERS-1
OBJECT_ID      = 1991-050A
CENTER_NAME    = EARTH
REF_FRAME      = TEME
TIME_SYSTEM    = UTC
MEAN_ELEMENT_THEORY = SGP/SGP4

EPOCH          = 2026-03-19T06:57:21.461472
MEAN_MOTION    = 14.39456317
ECCENTRICITY   = .00321608
INCLINATION    = 98.7875
RA_OF_ASC_NODE = 96.7655
ARG_OF_PERICENTER = 171.8813
MEAN_ANOMALY   = 188.2901

EPHEMERIS_TYPE = 0
CLASSIFICATION_TYPE = U
NORAD_CAT_ID   = 21574
ELEMENT_SET_NO = 999
REV_AT_EPOCH   = 81711
BSTAR          = .94122725E-4
MEAN_MOTION_DOT = .249E-5
MEAN_MOTION_DDOT = 0

CCSDS_OMM_VERS = 2.0
CREATION_DATE  = 
ORIGINATOR     = 

OBJECT_NAME    = ARIANE 40 R/B
OBJECT_ID      = 1991-050F
CENTER_NAME    = EARTH
REF_FRAME      = TEME
TIME_SYSTEM    = UTC
MEAN_ELEMENT_THEORY = SGP/SGP4

EPOCH          = 2026-03-19T04:18:07.428960
MEAN_MOTION    = 14.42900305
ECCENTRICITY   = .00040525
INCLINATION    = 98.1992
RA_OF_ASC_NODE = 130.0588
ARG_OF_PERICENTER = 60.5131
MEAN_ANOMALY   = 299.6464

EPHEMERIS_TYPE = 0
CLASSIFICATION_TYPE = U
NORAD_CAT_ID   = 21610
ELEMENT_SET_NO = 999
REV_AT_EPOCH   = 82036
BSTAR          = .89271673E-4
MEAN_MOTION_DOT = .257E-5
MEAN_MOTION_DDOT = 0

CCSDS_OMM_VERS = 2.0
CREATION_DATE  = 
ORIGINATOR     = 

OBJECT_NAME    = INTERCOSMOS 25
OBJECT_ID      = 1991-086A
CENTER_NAME    = EARTH
REF_FRAME      = TEME
TIME_SYSTEM    = UTC
MEAN_ELEMENT_THEORY = SGP/SGP4

EPOCH          = 2026-03-19T01:38:35.267136
MEAN_MOTION    = 12.12032942
ECCENTRICITY   = .14868181
INCLINATION    = 82.6035
RA_OF_ASC_NODE = 304.3398
ARG_OF_PERICENTER = 96.7265
MEAN_ANOMALY   = 280.4649

EPHEMERIS_TYPE = 0
CLASSIFICATION_TYPE = U
NORAD_CAT_ID   = 21819
ELEMENT_SET_NO = 999
REV_AT_EPOCH   = 49782
BSTAR          = .30927259E-3
MEAN_MOTION_DOT = .1615E-4
MEAN_MOTION_DDOT = 0

CCSDS_OMM_VERS = 2.0
CREATION_DATE  = 
ORIGINATOR     = 

OBJECT_NAME    = SL-8 R/B
OBJECT_ID      = 1992-008B
CENTER_NAME    = EARTH
REF_FRAME      = TEME
TIME_SYSTEM    = UTC
MEAN_ELEMENT_THEORY = SGP/SGP4

EPOCH          = 2026-03-19T06:29:04.713216
MEAN_MOTION    = 13.75969672
ECCENTRICITY   = .00358625
INCLINATION    = 82.9223
RA_OF_ASC_NODE = 260.6493
ARG_OF_PERICENTER = 107.4005
MEAN_ANOMALY   = 64.9002

EPHEMERIS_TYPE = 0
CLASSIFICATION_TYPE = U
NORAD_CAT_ID   = 21876
ELEMENT_SET_NO = 999
REV_AT_EPOCH   = 71073
BSTAR          = -.9016116E-5
MEAN_MOTION_DOT = .7E-7
MEAN_MOTION_DDOT = 0

CCSDS_OMM_VERS = 2.0
CREATION_DATE  = 
ORIGINATOR     = 

OBJECT_NAME    = SL-8 R/B
OBJECT_ID      = 1992-020B
CENTER_NAME    = EARTH
REF_FRAME      = TEME
TIME_SYSTEM    = UTC
MEAN_ELEMENT_THEORY = SGP/SGP4

EPOCH          = 2026-03-19T07:05:05.328384
MEAN_MOTION    = 13.75550155
ECCENTRICITY   = .00275399
INCLINATION    = 82.9321
RA_OF_ASC_NODE = 146.6305
ARG_OF_PERICENTER = 270.7017
MEAN_ANOMALY   = 157.3605

EPHEMERIS_TYPE = 0
CLASSIFICATION_TYPE = U
NORAD_CAT_ID   = 21938
ELEMENT_SET_NO = 999
REV_AT_EPOCH   = 70245
BSTAR          = .37055361E-4
MEAN_MOTION_DOT = .51E-6
MEAN_MOTION_DDOT = 0

CCSDS_OMM_VERS = 2.0
CREATION_DATE  = 
ORIGINATOR     = 

OBJECT_NAME    = USA 81
OBJECT_ID      = 1992-023A
CENTER_NAME    = EARTH
REF_FRAME      = TEME
TIME_SYSTEM    = UTC
MEAN_ELEMENT_THEORY = SGP/SGP4

EPOCH          = 2026-03-19T05:30:11.756736
MEAN_MOTION    = 14.32370993
ECCENTRICITY   = .00021886
INCLINATION    = 85.0066
RA_OF_ASC_NODE = 125.9370
ARG_OF_PERICENTER = 70.8196
MEAN_ANOMALY   = 289.3234

EPHEMERIS_TYPE = 0
CLASSIFICATION_TYPE = U
NORAD_CAT_ID   = 21949
ELEMENT_SET_NO = 999
REV_AT_EPOCH   = 9615
BSTAR          = .54021715E-4
MEAN_MOTION_DOT = .166E-5
MEAN_MOTION_DDOT = 0

CCSDS_OMM_VERS = 2.0
CREATION_DATE  = 
ORIGINATOR     = 

OBJECT_NAME    = COSMOS 2219
OBJECT_ID      = 1992-076A
CENTER_NAME    = EARTH
REF_FRAME      = TEME
TIME_SYSTEM    = UTC
MEAN_ELEMENT_THEORY = SGP/SGP4

EPOCH          = 2026-03-19T05:05:25.880640
MEAN_MOTION    = 14.14093314
ECCENTRICITY   = .0018422
INCLINATION    = 71.0640
RA_OF_ASC_NODE = 358.1638
ARG_OF_PERICENTER = 193.7191
MEAN_ANOMALY   = 166.3433

EPHEMERIS_TYPE = 0
CLASSIFICATION_TYPE = U
NORAD_CAT_ID   = 22219
ELEMENT_SET_NO = 999
REV_AT_EPOCH   = 71972
BSTAR          = -.41974236E-4
MEAN_MOTION_DOT = -.127E-5
MEAN_MOTION_DDOT = 0

CCSDS_OMM_VERS = 2.0
CREATION_DATE  = 
ORIGINATOR     = 

OBJECT_NAME    = SL-16 R/B
OBJECT_ID      = 1992-076B
CENTER_NAME    = EARTH
REF_FRAME      = TEME
TIME_SYSTEM    = UTC
MEAN_ELEMENT_THEORY = SGP/SGP4

EPOCH          = 2026-03-19T07:08:01.828896
MEAN_MOTION    = 14.16860639
ECCENTRICITY   = .00106127
INCLINATION    = 71.0006
RA_OF_ASC_NODE = 168.1373
ARG_OF_PERICENTER = 78.6094
MEAN_ANOMALY   = 337.9564

EPHEMERIS_TYPE = 0
CLASSIFICATION_TYPE = U
NORAD_CAT_ID   = 22220
ELEMENT_SET_NO = 999
REV_AT_EPOCH   = 72319
BSTAR          = .15364807E-3
MEAN_MOTION_DOT = .26E-5
MEAN_MOTION_DDOT = 0

CCSDS_OMM_VERS = 2.0
CREATION_DATE  = 
ORIGINATOR     = 

OBJECT_NAME    = COSMOS 2221
OBJECT_ID      = 1992-080A
CENTER_NAME    = EARTH
REF_FRAME      = TEME
TIME_SYSTEM    = UTC
MEAN_ELEMENT_THEORY = SGP/SGP4

EPOCH          = 2026-03-19T06:25:24.623904
MEAN_MOTION    = 14.96238202
ECCENTRICITY   = .00148625
INCLINATION    = 82.5001
RA_OF_ASC_NODE = 269.9038
ARG_OF_PERICENTER = 155.4729
MEAN_ANOMALY   = 204.7203

EPHEMERIS_TYPE = 0
CLASSIFICATION_TYPE = U
NORAD_CAT_ID   = 22236
ELEMENT_SET_NO = 999
REV_AT_EPOCH   = 78222
BSTAR          = .15741971E-3
MEAN_MOTION_DOT = .1805E-4
MEAN_MOTION_DDOT = 0

CCSDS_OMM_VERS = 2.0
CREATION_DATE  = 
ORIGINATOR     = 

OBJECT_NAME    = SL-16 R/B
OBJECT_ID      = 1992-093B
CENTER_NAME    = EARTH
REF_FRAME      = TEME
TIME_SYSTEM    = UTC
MEAN_ELEMENT_THEORY = SGP/SGP4

EPOCH          = 2026-03-19T03:19:38.225568
MEAN_MOTION    = 14.15448164
ECCENTRICITY   = .00062823
INCLINATION    = 71.0239
RA_OF_ASC_NODE = 344.4320
ARG_OF_PERICENTER = 284.1504
MEAN_ANOMALY   = 75.8921

EPHEMERIS_TYPE = 0
CLASSIFICATION_TYPE = U
NORAD_CAT_ID   = 22285
ELEMENT_SET_NO = 999
REV_AT_EPOCH   = 71449
BSTAR          = .13212067E-3
MEAN_MOTION_DOT = .21E-5
MEAN_MOTION_DDOT = 0

CCSDS_OMM_VERS = 2.0
CREATION_DATE  = 
ORIGINATOR     = 

OBJECT_NAME    = COSMOS 2228
OBJECT_ID      = 1992-094A
CENTER_NAME    = EARTH
REF_FRAME      = TEME
TIME_SYSTEM    = UTC
MEAN_ELEMENT_THEORY = SGP/SGP4

EPOCH          = 2026-03-19T06:39:46.836288
MEAN_MOTION    = 14.97238202
ECCENTRICITY   = .00166063
INCLINATION    = 82.5169
RA_OF_ASC_NODE = 228.1294
ARG_OF_PERICENTER = 269.7415
MEAN_ANOMALY   = 90.1904

EPHEMERIS_TYPE = 0
CLASSIFICATION_TYPE = U
NORAD_CAT_ID   = 22286
ELEMENT_SET_NO = 999
REV_AT_EPOCH   = 77749
BSTAR          = .18679395E-3
MEAN_MOTION_DOT = .2193E-4
MEAN_MOTION_DDOT = 0

CCSDS_OMM_VERS = 2.0
CREATION_DATE  = 
ORIGINATOR     = 

OBJECT_NAME    = SL-16 R/B
OBJECT_ID      = 1993-016B
CENTER_NAME    = EARTH
REF_FRAME      = TEME
TIME_SYSTEM    = UTC
MEAN_ELEMENT_THEORY = SGP/SGP4

EPOCH          = 2026-03-19T07:42:42.695136
MEAN_MOTION    = 14.15307722
ECCENTRICITY   = .00122948
INCLINATION    = 71.0082
RA_OF_ASC_NODE = 194.9529
ARG_OF_PERICENTER = 301.6068
MEAN_ANOMALY   = 58.3854

EPHEMERIS_TYPE = 0
CLASSIFICATION_TYPE = U
NORAD_CAT_ID   = 22566
ELEMENT_SET_NO = 999
REV_AT_EPOCH   = 70353
BSTAR          = -.10828314E-3
MEAN_MOTION_DOT = -.259E-5
MEAN_MOTION_DDOT = 0

